CCSDS_OMM_VERS = 2.0
CREATION_DATE  = 
ORIGINATOR     = 

OBJECT_NAME    = STARLINK-34812
OBJECT_ID      = 2025-232X
CENTER_NAME    = EARTH
REF_FRAME      = TEME
TIME_SYSTEM    = UTC
MEAN_ELEMENT_THEORY = SGP/SGP4

EPOCH          = 2025-11-04T20:00:03.000384
MEAN_MOTION    = 15.49190704
ECCENTRICITY   = .0001793
INCLINATION    = 53.1588
RA_OF_ASC_NODE = 326.3209
ARG_OF_PERICENTER = 60.6135
MEAN_ANOMALY   = 339.7218

EPHEMERIS_TYPE = 0
CLASSIFICATION_TYPE = U
NORAD_CAT_ID   = 66026
ELEMENT_SET_NO = 999
REV_AT_EPOCH   = 340
BSTAR          = .17736E-2
MEAN_MOTION_DOT = .99037E-3
MEAN_MOTION_DDOT = 0

CCSDS_OMM_VERS = 2.0
CREATION_DATE  = 
ORIGINATOR     = 

OBJECT_NAME    = STARLINK-35341
OBJECT_ID      = 2025-232Y
CENTER_NAME    = EARTH
REF_FRAME      = TEME
TIME_SYSTEM    = UTC
MEAN_ELEMENT_THEORY = SGP/SGP4

EPOCH          = 2025-11-04T20:00:03.000384
MEAN_MOTION    = 15.59655834
ECCENTRICITY   = .0001432
INCLINATION    = 53.1594
RA_OF_ASC_NODE = 326.0778
ARG_OF_PERICENTER = 72.6974
MEAN_ANOMALY   = 87.4572

EPHEMERIS_TYPE = 0
CLASSIFICATION_TYPE = U
NORAD_CAT_ID   = 66027
ELEMENT_SET_NO = 999
REV_AT_EPOCH   = 345
BSTAR          = -.28413E-1
MEAN_MOTION_DOT = -.2023361E-1
MEAN_MOTION_DDOT = 0

CCSDS_OMM_VERS = 2.0
CREATION_DATE  = 
ORIGINATOR     = 

OBJECT_NAME    = STARLINK-35339
OBJECT_ID      = 2025-232Z
CENTER_NAME    = EARTH
REF_FRAME      = TEME
TIME_SYSTEM    = UTC
MEAN_ELEMENT_THEORY = SGP/SGP4

EPOCH          = 2025-11-04T20:00:03.000384
MEAN_MOTION    = 15.59660836
ECCENTRICITY   = .0001452
INCLINATION    = 53.1594
RA_OF_ASC_NODE = 326.0742
ARG_OF_PERICENTER = 74.6117
MEAN_ANOMALY   = 87.4580

EPHEMERIS_TYPE = 0
CLASSIFICATION_TYPE = U
NORAD_CAT_ID   = 66028
ELEMENT_SET_NO = 999
REV_AT_EPOCH   = 339
BSTAR          = -.28511E-1
MEAN_MOTION_DOT = -.2029839E-1
MEAN_MOTION_DDOT = 0

CCSDS_OMM_VERS = 2.0
CREATION_DATE  = 
ORIGINATOR     = 

OBJECT_NAME    = STARLINK-35399
OBJECT_ID      = 2025-232AA
CENTER_NAME    = EARTH
REF_FRAME      = TEME
TIME_SYSTEM    = UTC
MEAN_ELEMENT_THEORY = SGP/SGP4

EPOCH          = 2025-11-04T20:00:03.000384
MEAN_MOTION    = 15.59657996
ECCENTRICITY   = .0001493
INCLINATION    = 53.1593
RA_OF_ASC_NODE = 326.0706
ARG_OF_PERICENTER = 78.0484
MEAN_ANOMALY   = 85.9374

EPHEMERIS_TYPE = 0
CLASSIFICATION_TYPE = U
NORAD_CAT_ID   = 66029
ELEMENT_SET_NO = 999
REV_AT_EPOCH   = 339
BSTAR          = -.28423E-1
MEAN_MOTION_DOT = -.2024165E-1
MEAN_MOTION_DDOT = 0

CCSDS_OMM_VERS = 2.0
CREATION_DATE  = 
ORIGINATOR     = 

OBJECT_NAME    = STARLINK-35431
OBJECT_ID      = 2025-232AB
CENTER_NAME    = EARTH
REF_FRAME      = TEME
TIME_SYSTEM    = UTC
MEAN_ELEMENT_THEORY = SGP/SGP4

EPOCH          = 2025-11-04T20:00:03.000384
MEAN_MOTION    = 15.59652266
ECCENTRICITY   = .000156
INCLINATION    = 53.1595
RA_OF_ASC_NODE = 326.0656
ARG_OF_PERICENTER = 78.4762
MEAN_ANOMALY   = 87.4275

EPHEMERIS_TYPE = 0
CLASSIFICATION_TYPE = U
NORAD_CAT_ID   = 66030
ELEMENT_SET_NO = 999
REV_AT_EPOCH   = 339
BSTAR          = -.28301E-1
MEAN_MOTION_DOT = -.2016219E-1
MEAN_MOTION_DDOT = 0

CCSDS_OMM_VERS = 2.0
CREATION_DATE  = 
ORIGINATOR     = 

OBJECT_NAME    = STARLINK-35326
OBJECT_ID      = 2025-232AC
CENTER_NAME    = EARTH
REF_FRAME      = TEME
TIME_SYSTEM    = UTC
MEAN_ELEMENT_THEORY = SGP/SGP4

EPOCH          = 2025-11-04T20:00:03.000384
MEAN_MOTION    = 15.59652890
ECCENTRICITY   = .0001538
INCLINATION    = 53.1594
RA_OF_ASC_NODE = 326.0621
ARG_OF_PERICENTER = 78.5349
MEAN_ANOMALY   = 89.2855

EPHEMERIS_TYPE = 0
CLASSIFICATION_TYPE = U
NORAD_CAT_ID   = 66031
ELEMENT_SET_NO = 999
REV_AT_EPOCH   = 345
BSTAR          = -.28315E-1
MEAN_MOTION_DOT = -.2017128E-1
MEAN_MOTION_DDOT = 0

CCSDS_OMM_VERS = 2.0
CREATION_DATE  = 
ORIGINATOR     = 

OBJECT_NAME    = STARLINK-35311
OBJECT_ID      = 2025-232AD
CENTER_NAME    = EARTH
REF_FRAME      = TEME
TIME_SYSTEM    = UTC
MEAN_ELEMENT_THEORY = SGP/SGP4

EPOCH          = 2025-11-04T20:00:03.000384
MEAN_MOTION    = 15.59657831
ECCENTRICITY   = .0001597
INCLINATION    = 53.1591
RA_OF_ASC_NODE = 326.0583
ARG_OF_PERICENTER = 78.1071
MEAN_ANOMALY   = 91.6282

EPHEMERIS_TYPE = 0
CLASSIFICATION_TYPE = U
NORAD_CAT_ID   = 66032
ELEMENT_SET_NO = 999
REV_AT_EPOCH   = 345
BSTAR          = -.28419E-1
MEAN_MOTION_DOT = -.2023993E-1
MEAN_MOTION_DDOT = 0

CCSDS_OMM_VERS = 2.0
CREATION_DATE  = 
ORIGINATOR     = 

OBJECT_NAME    = QIANFAN-91
OBJECT_ID      = 2025-233A
CENTER_NAME    = EARTH
REF_FRAME      = TEME
TIME_SYSTEM    = UTC
MEAN_ELEMENT_THEORY = SGP/SGP4

EPOCH          = 2025-11-04T19:07:34.865184
MEAN_MOTION    = 14.25915818
ECCENTRICITY   = .0016459
INCLINATION    = 88.9951
RA_OF_ASC_NODE = 66.3991
ARG_OF_PERICENTER = 151.2996
MEAN_ANOMALY   = 208.9107

EPHEMERIS_TYPE = 0
CLASSIFICATION_TYPE = U
NORAD_CAT_ID   = 66033
ELEMENT_SET_NO = 999
REV_AT_EPOCH   = 263
BSTAR          = .2659E-3
MEAN_MOTION_DOT = .648E-5
MEAN_MOTION_DDOT = 0

CCSDS_OMM_VERS = 2.0
CREATION_DATE  = 
ORIGINATOR     = 

OBJECT_NAME    = QIANFAN-92
OBJECT_ID      = 2025-233B
CENTER_NAME    = EARTH
REF_FRAME      = TEME
TIME_SYSTEM    = UTC
MEAN_ELEMENT_THEORY = SGP/SGP4

EPOCH          = 2025-11-04T19:06:34.468128
MEAN_MOTION    = 14.25997651
ECCENTRICITY   = .0016044
INCLINATION    = 88.9950
RA_OF_ASC_NODE = 66.3987
ARG_OF_PERICENTER = 153.7988
MEAN_ANOMALY   = 206.4020

EPHEMERIS_TYPE = 0
CLASSIFICATION_TYPE = U
NORAD_CAT_ID   = 66034
ELEMENT_SET_NO = 999
REV_AT_EPOCH   = 263
BSTAR          = .27082E-3
MEAN_MOTION_DOT = .661E-5
MEAN_MOTION_DDOT = 0

CCSDS_OMM_VERS = 2.0
CREATION_DATE  = 
ORIGINATOR     = 

OBJECT_NAME    = QIANFAN-93
OBJECT_ID      = 2025-233C
CENTER_NAME    = EARTH
REF_FRAME      = TEME
TIME_SYSTEM    = UTC
MEAN_ELEMENT_THEORY = SGP/SGP4

EPOCH          = 2025-11-04T19:04:58.990944
MEAN_MOTION    = 14.26081309
ECCENTRICITY   = .0015362
INCLINATION    = 88.9950
RA_OF_ASC_NODE = 66.3987
ARG_OF_PERICENTER = 153.1314
MEAN_ANOMALY   = 207.0679

EPHEMERIS_TYPE = 0
CLASSIFICATION_TYPE = U
NORAD_CAT_ID   = 66035
ELEMENT_SET_NO = 999
REV_AT_EPOCH   = 263
BSTAR          = .27807E-3
MEAN_MOTION_DOT = .679E-5
MEAN_MOTION_DDOT = 0

CCSDS_OMM_VERS = 2.0
CREATION_DATE  = 
ORIGINATOR     = 

OBJECT_NAME    = QIANFAN-94
OBJECT_ID      = 2025-233D
CENTER_NAME    = EARTH
REF_FRAME      = TEME
TIME_SYSTEM    = UTC
MEAN_ELEMENT_THEORY = SGP/SGP4

EPOCH          = 2025-11-04T19:04:35.639616
MEAN_MOTION    = 14.26106442
ECCENTRICITY   = .0015442
INCLINATION    = 88.9951
RA_OF_ASC_NODE = 66.3988
ARG_OF_PERICENTER = 152.7851
MEAN_ANOMALY   = 207.4155

EPHEMERIS_TYPE = 0
CLASSIFICATION_TYPE = U
NORAD_CAT_ID   = 66036
ELEMENT_SET_NO = 999
REV_AT_EPOCH   = 263
BSTAR          = .27067E-3
MEAN_MOTION_DOT = .662E-5
MEAN_MOTION_DDOT = 0

CCSDS_OMM_VERS = 2.0
CREATION_DATE  = 
ORIGINATOR     = 

OBJECT_NAME    = QIANFAN-95
OBJECT_ID      = 2025-233E
CENTER_NAME    = EARTH
REF_FRAME      = TEME
TIME_SYSTEM    = UTC
MEAN_ELEMENT_THEORY = SGP/SGP4

EPOCH          = 2025-11-04T19:04:07.201920
MEAN_MOTION    = 14.26151603
ECCENTRICITY   = .0015398
INCLINATION    = 88.9951
RA_OF_ASC_NODE = 66.3987
ARG_OF_PERICENTER = 153.1717
MEAN_ANOMALY   = 207.0276

EPHEMERIS_TYPE = 0
CLASSIFICATION_TYPE = U
NORAD_CAT_ID   = 66037
ELEMENT_SET_NO = 999
REV_AT_EPOCH   = 263
BSTAR          = .26685E-3
MEAN_MOTION_DOT = .654E-5
MEAN_MOTION_DDOT = 0

