STARLINK-34812          
1 66026U 25232X   25308.83336806  .00099037  00000+0  17736-2 0  9992
2 66026  53.1588 326.3209 0001793  60.6135 339.7218 15.49190704  3408
STARLINK-35341          
1 66027U 25232Y   25308.83336806 -.02023361  00000+0 -28413-1 0  9997
2 66027  53.1594 326.0778 0001432  72.6974  87.4572 15.59655834  3454
STARLINK-35339          
1 66028U 25232Z   25308.83336806 -.02029839  00000+0 -28511-1 0  9993
2 66028  53.1594 326.0742 0001452  74.6117  87.4580 15.59660836  3399
STARLINK-35399          
1 66029U 25232AA  25308.83336806 -.02024165  00000+0 -28423-1 0  9993
2 66029  53.1593 326.0706 0001493  78.0484  85.9374 15.59657996  3396
STARLINK-35431          
1 66030U 25232AB  25308.83336806 -.02016219  00000+0 -28301-1 0  9991
2 66030  53.1595 326.0656 0001560  78.4762  87.4275 15.59652266  3394
STARLINK-35326          
1 66031U 25232AC  25308.83336806 -.02017128  00000+0 -28315-1 0  9997
2 66031  53.1594 326.0621 0001538  78.5349  89.2855 15.59652890  3457
STARLINK-35311          
1 66032U 25232AD  25308.83336806 -.02023993  00000+0 -28419-1 0  9990
2 66032  53.1591 326.0583 0001597  78.1071  91.6282 15.59657831  3456
QIANFAN-91              
1 66033U 25233A   25308.79693131  .00000648  00000+0  26590-3 0  9992
2 66033  88.9951  66.3991 0016459 151.2996 208.9107 14.25915818  2634
QIANFAN-92              
1 66034U 25233B   25308.79623227  .00000661  00000+0  27082-3 0  9994
2 66034  88.9950  66.3987 0016044 153.7988 206.4020 14.25997651  2639
QIANFAN-93              
1 66035U 25233C   25308.79512721  .00000679  00000+0  27807-3 0  9995
2 66035  88.9950  66.3987 0015362 153.1314 207.0679 14.26081309  2631
QIANFAN-94              
1 66036U 25233D   25308.79485694  .00000662  00000+0  27067-3 0  9994
2 66036  88.9951  66.3988 0015442 152.7851 207.4155 14.26106442  2633
QIANFAN-95              
1 66037U 25233E   25308.79452780  .00000654  00000+0  26685-3 0  9991
2 66037  88.9951  66.3987 0015398 153.1717 207.0276 14.26151603  2638
